{
  "type": "FeatureCollection",
  "features": [
    {
      "type": "Feature",
      "properties": {
        "norad_id": 66909,
        "name": "SILVERSAT",
        "group": "stations",
        "lat": 7.200674478492239,
        "lon": -93.70598193001571,
        "alt_km": 409.1356808885557,
        "timestamp": "2025-12-22T20:43:44.599357+00:00",
        "meta_object_name": "SILVERSAT",
        "meta_object_id": "1998-067XV",
        "meta_epoch": "2025-12-22T12:16:28.422912",
        "meta_mean_motion": 15.52898333,
        "meta_eccentricity": 0.0003866,
        "meta_inclination": 51.6306,
        "meta_ra_of_asc_node": 93.7929,
        "meta_arg_of_pericenter": 288.2093,
        "meta_mean_anomaly": 71.8476,
        "meta_ephemeris_type": 0,
        "meta_classification_type": "U",
        "meta_norad_cat_id": 66909,
        "meta_element_set_no": 999,
        "meta_rev_at_epoch": 313,
        "meta_bstar": 0.0011325313,
        "meta_mean_motion_dot": 0.00071888,
        "meta_mean_motion_ddot": 0,
        "tle_line1": "1 66909U 98067XV  25356.51144008  .00071888  00000+0  11325-2 0  9999",
        "tle_line2": "2 66909  51.6306  93.7929 0003866 288.2093  71.8476 15.52898333  3134"
      },
      "geometry": {
        "type": "Point",
        "coordinates": [
          -93.70598193001571,
          7.200674478492239
        ]
      }
    },
    {
      "type": "Feature",
      "properties": {
        "norad_id": 66910,
        "name": "1998-067XW",
        "group": "stations",
        "lat": -0.45515821002316004,
        "lon": -87.62124151000441,
        "alt_km": 408.660414698139,
        "timestamp": "2025-12-22T20:43:44.599370+00:00",
        "meta_object_name": "1998-067XW",
        "meta_object_id": "1998-067XW",
        "meta_epoch": "2025-12-22T12:13:56.337312",
        "meta_mean_motion": 15.52855241,
        "meta_eccentricity": 0.00039884,
        "meta_inclination": 51.6304,
        "meta_ra_of_asc_node": 93.7808,
        "meta_arg_of_pericenter": 260.6768,
        "meta_mean_anomaly": 99.3771,
        "meta_ephemeris_type": 0,
        "meta_classification_type": "U",
        "meta_norad_cat_id": 66910,
        "meta_element_set_no": 999,
        "meta_rev_at_epoch": 313,
        "meta_bstar": 0.0010313397,
        "meta_mean_motion_dot": 0.00065266,
        "meta_mean_motion_ddot": 0,
        "tle_line1": "1 66910U 98067XW  25356.50967983  .00065266  00000+0  10313-2 0  9994",
        "tle_line2": "2 66910  51.6304  93.7808 0003988 260.6768  99.3771 15.52855241  3132"
      },
      "geometry": {
        "type": "Point",
        "coordinates": [
          -87.62124151000441,
          -0.45515821002316004
        ]
      }
    },
    {
      "type": "Feature",
      "properties": {
        "norad_id": 66911,
        "name": "1998-067XX",
        "group": "stations",
        "lat": -14.041286104224636,
        "lon": -76.58996076161961,
        "alt_km": 408.37502373288135,
        "timestamp": "2025-12-22T20:43:44.599380+00:00",
        "meta_object_name": "1998-067XX",
        "meta_object_id": "1998-067XX",
        "meta_epoch": "2025-12-22T12:09:35.951904",
        "meta_mean_motion": 15.53307333,
        "meta_eccentricity": 0.00037259,
        "meta_inclination": 51.6305,
        "meta_ra_of_asc_node": 93.7603,
        "meta_arg_of_pericenter": 265.4438,
        "meta_mean_anomaly": 94.6127,
        "meta_ephemeris_type": 0,
        "meta_classification_type": "U",
        "meta_norad_cat_id": 66911,
        "meta_element_set_no": 999,
        "meta_rev_at_epoch": 312,
        "meta_bstar": 0.0011547051,
        "meta_mean_motion_dot": 0.00074426,
        "meta_mean_motion_ddot": 0,
        "tle_line1": "1 66911U 98067XX  25356.50666611  .00074426  00000+0  11547-2 0  9997",
        "tle_line2": "2 66911  51.6305  93.7603 0003725 265.4438  94.6127 15.53307333  3120"
      },
      "geometry": {
        "type": "Point",
        "coordinates": [
          -76.58996076161961,
          -14.041286104224636
        ]
      }
    },
    {
      "type": "Feature",
      "properties": {
        "norad_id": 66912,
        "name": "1998-067XY",
        "group": "stations",
        "lat": 32.54780172215842,
        "lon": -118.26313110328023,
        "alt_km": 408.52239701573853,
        "timestamp": "2025-12-22T20:43:44.599391+00:00",
        "meta_object_name": "1998-067XY",
        "meta_object_id": "1998-067XY",
        "meta_epoch": "2025-12-22T13:57:42.061248",
        "meta_mean_motion": 15.52056622,
        "meta_eccentricity": 0.00039127,
        "meta_inclination": 51.6324,
        "meta_ra_of_asc_node": 93.5129,
        "meta_arg_of_pericenter": 278.0711,
        "meta_mean_anomaly": 81.9835,
        "meta_ephemeris_type": 0,
        "meta_classification_type": "U",
        "meta_norad_cat_id": 66912,
        "meta_element_set_no": 999,
        "meta_rev_at_epoch": 313,
        "meta_bstar": 0.00086867978,
        "meta_mean_motion_dot": 0.0005325,
        "meta_mean_motion_ddot": 0,
        "tle_line1": "1 66912U 98067XY  25356.58173682  .00053250  00000+0  86868-3 0  9998",
        "tle_line2": "2 66912  51.6324  93.5129 0003912 278.0711  81.9835 15.52056622  3132"
      },
      "geometry": {
        "type": "Point",
        "coordinates": [
          -118.26313110328023,
          32.54780172215842
        ]
      }
    }
  ]
}